{
  "type": "FeatureCollection",
  "features": [
    {
      "type": "Feature",
      "properties": {
        "norad_id": 37836,
        "name": "EUTELSAT 16A",
        "group": "eutelsat",
        "lat": 0.07756194313993997,
        "lon": 81.97408998966968,
        "alt_km": 35811.25539433689,
        "timestamp": "2025-12-15T22:44:28.595199+00:00",
        "meta_object_name": "EUTELSAT 16A",
        "meta_object_id": "2011-057A",
        "meta_epoch": "2025-12-15T06:36:54.634176",
        "meta_mean_motion": 1.00273328,
        "meta_eccentricity": 0.00061036,
        "meta_inclination": 0.0618,
        "meta_ra_of_asc_node": 16.2298,
        "meta_arg_of_pericenter": 252.2316,
        "meta_mean_anomaly": 290.9583,
        "meta_ephemeris_type": 0,
        "meta_classification_type": "U",
        "meta_norad_cat_id": 37836,
        "meta_element_set_no": 999,
        "meta_rev_at_epoch": 548,
        "meta_bstar": 0,
        "meta_mean_motion_dot": 1.25e-06,
        "meta_mean_motion_ddot": 0,
        "tle_line1": "1 37836U 11057A   25349.27563234  .00000125  00000+0  00000+0 0  9992",
        "tle_line2": "2 37836   0.0618  16.2298 0006103 252.2316 290.9583  1.00273328  5482"
      },
      "geometry": {
        "type": "Point",
        "coordinates": [
          81.97408998966968,
          0.07756194313993997
        ]
      }
    },
    {
      "type": "Feature",
      "properties": {
        "norad_id": 38992,
        "name": "EUTELSAT 21B",
        "group": "eutelsat",
        "lat": 0.08763497705097448,
        "lon": 87.57018254583555,
        "alt_km": 35799.93756047652,
        "timestamp": "2025-12-15T22:44:28.595214+00:00",
        "meta_object_name": "EUTELSAT 21B",
        "meta_object_id": "2012-062B",
        "meta_epoch": "2025-12-15T06:38:31.977600",
        "meta_mean_motion": 1.00273614,
        "meta_eccentricity": 0.00034393,
        "meta_inclination": 0.0686,
        "meta_ra_of_asc_node": 11.74,
        "meta_arg_of_pericenter": 262.644,
        "meta_mean_anomaly": 291.041,
        "meta_ephemeris_type": 0,
        "meta_classification_type": "U",
        "meta_norad_cat_id": 38992,
        "meta_element_set_no": 999,
        "meta_rev_at_epoch": 4798,
        "meta_bstar": 0,
        "meta_mean_motion_dot": 1.51e-06,
        "meta_mean_motion_ddot": 0,
        "tle_line1": "1 38992U 12062B   25349.27675900  .00000151  00000+0  00000+0 0  9996",
        "tle_line2": "2 38992   0.0686  11.7400 0003439 262.6440 291.0410  1.00273614 47988"
      },
      "geometry": {
        "type": "Point",
        "coordinates": [
          87.57018254583555,
          0.08763497705097448
        ]
      }
    },
    {
      "type": "Feature",
      "properties": {
        "norad_id": 39020,
        "name": "EUTELSAT 70B",
        "group": "eutelsat",
        "lat": 0.04418780457791796,
        "lon": 136.40797483127253,
        "alt_km": 35793.377179156036,
        "timestamp": "2025-12-15T22:44:28.595240+00:00",
        "meta_object_name": "EUTELSAT 70B",
        "meta_object_id": "2012-069A",
        "meta_epoch": "2025-12-15T05:09:33.001056",
        "meta_mean_motion": 1.00270972,
        "meta_eccentricity": 0.00043067,
        "meta_inclination": 0.0611,
        "meta_ra_of_asc_node": 351.7626,
        "meta_arg_of_pericenter": 257.4388,
        "meta_mean_anomaly": 342.812,
        "meta_ephemeris_type": 0,
        "meta_classification_type": "U",
        "meta_norad_cat_id": 39020,
        "meta_element_set_no": 999,
        "meta_rev_at_epoch": 4766,
        "meta_bstar": 0,
        "meta_mean_motion_dot": -2.3e-07,
        "meta_mean_motion_ddot": 0,
        "tle_line1": "1 39020U 12069A   25349.21496529 -.00000023  00000+0  00000+0 0  9997",
        "tle_line2": "2 39020   0.0611 351.7626 0004306 257.4388 342.8120  1.00270972 47665"
      },
      "geometry": {
        "type": "Point",
        "coordinates": [
          136.40797483127253,
          0.04418780457791796
        ]
      }
    },
    {
      "type": "Feature",
      "properties": {
        "norad_id": 39122,
        "name": "EUTELSAT 117 WEST A",
        "group": "eutelsat",
        "lat": -0.030515385301573165,
        "lon": -50.829739654646204,
        "alt_km": 35777.00394598387,
        "timestamp": "2025-12-15T22:44:28.595264+00:00",
        "meta_object_name": "EUTELSAT 117 WEST A",
        "meta_object_id": "2013-012A",
        "meta_epoch": "2025-12-15T08:27:38.617056",
        "meta_mean_motion": 1.00272361,
        "meta_eccentricity": 0.00027899,
        "meta_inclination": 0.0209,
        "meta_ra_of_asc_node": 31.9243,
        "meta_arg_of_pericenter": 236.1935,
        "meta_mean_anomaly": 186.2466,
        "meta_ephemeris_type": 0,
        "meta_classification_type": "U",
        "meta_norad_cat_id": 39122,
        "meta_element_set_no": 999,
        "meta_rev_at_epoch": 4659,
        "meta_bstar": 0,
        "meta_mean_motion_dot": 8e-08,
        "meta_mean_motion_ddot": 0,
        "tle_line1": "1 39122U 13012A   25349.35253029  .00000008  00000+0  00000+0 0  9992",
        "tle_line2": "2 39122   0.0209  31.9243 0002789 236.1935 186.2466  1.00272361 46596"
      },
      "geometry": {
        "type": "Point",
        "coordinates": [
          -50.829739654646204,
          -0.030515385301573165
        ]
      }
    },
    {
      "type": "Feature",
      "properties": {
        "norad_id": 39163,
        "name": "EUTELSAT 7B",
        "group": "eutelsat",
        "lat": 0.07809819070296374,
        "lon": 73.01943337098504,
        "alt_km": 35793.165310300334,
        "timestamp": "2025-12-15T22:44:28.595279+00:00",
        "meta_object_name": "EUTELSAT 7B",
        "meta_object_id": "2013-022A",
        "meta_epoch": "2025-12-15T00:19:38.699904",
        "meta_mean_motion": 1.00273931,
        "meta_eccentricity": 0.00046755,
        "meta_inclination": 0.0763,
        "meta_ra_of_asc_node": 25.2223,
        "meta_arg_of_pericenter": 294.7089,
        "meta_mean_anomaly": 135.9143,
        "meta_ephemeris_type": 0,
        "meta_classification_type": "U",
        "meta_norad_cat_id": 39163,
        "meta_element_set_no": 999,
        "meta_rev_at_epoch": 4611,
        "meta_bstar": 0,
        "meta_mean_motion_dot": 6.9e-07,
        "meta_mean_motion_ddot": 0,
        "tle_line1": "1 39163U 13022A   25349.01364236  .00000069  00000+0  00000+0 0  9991",
        "tle_line2": "2 39163   0.0763  25.2223 0004675 294.7089 135.9143  1.00273931 46111"
      },
      "geometry": {
        "type": "Point",
        "coordinates": [
          73.01943337098504,
          0.07809819070296374
        ]
      }
    },
    {
      "type": "Feature",
      "properties": {
        "norad_id": 39612,
        "name": "EXPRESS-AT1",
        "group": "eutelsat",
        "lat": 0.028923105076368964,
        "lon": 121.95551739103703,
        "alt_km": 35783.27419261701,
        "timestamp": "2025-12-15T22:44:28.595298+00:00",
        "meta_object_name": "EXPRESS-AT1",
        "meta_object_id": "2014-010A",
        "meta_epoch": "2025-12-15T13:39:14.187744",
        "meta_mean_motion": 1.00274272,
        "meta_eccentricity": 5.18e-05,
        "meta_inclination": 0.0215,
        "meta_ra_of_asc_node": 345.6169,
        "meta_arg_of_pericenter": 154.3,
        "meta_mean_anomaly": 205.3652,
        "meta_ephemeris_type": 0,
        "meta_classification_type": "U",
        "meta_norad_cat_id": 39612,
        "meta_element_set_no": 999,
        "meta_rev_at_epoch": 4297,
        "meta_bstar": 0,
        "meta_mean_motion_dot": 0,
        "meta_mean_motion_ddot": 0,
        "tle_line1": "1 39612U 14010A   25349.56891421  .00000000  00000+0  00000+0 0  9994",
        "tle_line2": "2 39612   0.0215 345.6169 0000518 154.3000 205.3652  1.00274272 42972"
      },
      "geometry": {
        "type": "Point",
        "coordinates": [
          121.95551739103703,
          0.028923105076368964
        ]
      }
    },
    {
      "type": "Feature",
      "properties": {
        "norad_id": 39613,
        "name": "EXPRESS-AT2",
        "group": "eutelsat",
        "lat": -0.029500176366267054,
        "lon": -154.20856399843544,
        "alt_km": 35786.05743738383,
        "timestamp": "2025-12-15T22:44:28.595310+00:00",
        "meta_object_name": "EXPRESS-AT2",
        "meta_object_id": "2014-010B",
        "meta_epoch": "2025-12-15T07:12:13.751424",
        "meta_mean_motion": 1.00273368,
        "meta_eccentricity": 0.00012024,
        "meta_inclination": 0.0154,
        "meta_ra_of_asc_node": 289.8872,
        "meta_arg_of_pericenter": 10.0403,
        "meta_mean_anomaly": 32.1857,
        "meta_ephemeris_type": 0,
        "meta_classification_type": "U",
        "meta_norad_cat_id": 39613,
        "meta_element_set_no": 999,
        "meta_rev_at_epoch": 4265,
        "meta_bstar": 0,
        "meta_mean_motion_dot": -2.6e-06,
        "meta_mean_motion_ddot": 0,
        "tle_line1": "1 39613U 14010B   25349.30015916 -.00000260  00000+0  00000+0 0  9993",
        "tle_line2": "2 39613   0.0154 289.8872 0001202  10.0403  32.1857  1.00273368 42654"
      },
      "geometry": {
        "type": "Point",
        "coordinates": [
          -154.20856399843544,
          -0.029500176366267054
        ]
      }
    }
  ]
}